ELYSIUM STAR 2 & LFF    
1 43760U 18099C   24232.43404080  .00088573  00000+0  26928-2 0  9992
2 43760  97.5111 300.6709 0004068  61.0034 299.1615 15.33687179312901
